{"type": "FeatureCollection", "features": [ {"type": "Feature", "properties": {"norad_id": 40697, "name": "SENTINEL-2A", "group": "resource", "lat": 54.53800848549352, "lon": 48.68787993158399, "alt_km": 783.14428846991, "timestamp": "2025-12-14T09:36:22.691746+00:00", "meta": {"OBJECT_NAME": "SENTINEL-2A", "OBJECT_ID": "2015-028A", "EPOCH": "2025-12-13T16:33:53.272224", "MEAN_MOTION": 14.30814225, "ECCENTRICITY": 0.00010822, "INCLINATION": 98.5687, "RA_OF_ASC_NODE": 60.2086, "ARG_OF_PERICENTER": 87.8943, "MEAN_ANOMALY": 272.2364, "EPHEMERIS_TYPE": 0, "CLASSIFICATION_TYPE": "U", "NORAD_CAT_ID": 40697, "ELEMENT_SET_NO": 999, "REV_AT_EPOCH": 54720, "BSTAR": 0.0001422295, "MEAN_MOTION_DOT": 3.29e-06, "MEAN_MOTION_DDOT": 0}, "tle": {"line1": "1 40697U 15028A   25347.69019991  .00000329  00000+0  14223-3 0  9995", "line2": "2 40697  98.5687  60.2086 0001082  87.8943 272.2364 14.30814225547207"}}, "geometry": {"type": "Point", "coordinates": [48.68787993158399, 54.53800848549352]}}, {"type": "Feature", "properties": {"norad_id": 40701, "name": "GAOFEN-8", "group": "resource", "lat": 25.04859024480942, "lon": 162.99994135629728, "alt_km": 451.75282648816756, "timestamp": "2025-12-14T09:36:22.691756+00:00", "meta": {"OBJECT_NAME": "GAOFEN-8", "OBJECT_ID": "2015-030A", "EPOCH": "2025-12-13T16:19:38.349408", "MEAN_MOTION": 15.38600851, "ECCENTRICITY": 0.00116728, "INCLINATION": 97.6913, "RA_OF_ASC_NODE": 165.8662, "ARG_OF_PERICENTER": 134.6295, "MEAN_ANOMALY": 225.5903, "EPHEMERIS_TYPE": 0, "CLASSIFICATION_TYPE": "U", "NORAD_CAT_ID": 40701, "ELEMENT_SET_NO": 999, "REV_AT_EPOCH": 58285, "BSTAR": 0.00084606521, "MEAN_MOTION_DOT": 0.00032331, "MEAN_MOTION_DDOT": 0}, "tle": {"line1": "1 40701U 15030A   25347.68030497  .00032331  00000+0  84607-3 0  9998", "line2": "2 40701  97.6913 165.8662 0011672 134.6295 225.5903 15.38600851582851"}}, "geometry": {"type": "Point", "coordinates": [162.99994135629728, 25.04859024480942]}}, {"type": "Feature", "properties": {"norad_id": 40718, "name": "CARBONITE 1 (CBNT-1)", "group": "resource", "lat": -16.335802612990822, "lon": 171.62563322383136, "alt_km": 635.4430528890998, "timestamp": "2025-12-14T09:36:22.691765+00:00", "meta": {"OBJECT_NAME": "CARBONITE 1 (CBNT-1)", "OBJECT_ID": "2015-032D", "EPOCH": "2025-12-13T15:51:54.102240", "MEAN_MOTION": 14.82752732, "ECCENTRICITY": 0.00145077, "INCLINATION": 97.6403, "RA_OF_ASC_NODE": 168.6644, "ARG_OF_PERICENTER": 178.2814, "MEAN_ANOMALY": 181.8452, "EPHEMERIS_TYPE": 0, "CLASSIFICATION_TYPE": "U", "NORAD_CAT_ID": 40718, "ELEMENT_SET_NO": 999, "REV_AT_EPOCH": 56184, "BSTAR": 0.00049545092, "MEAN_MOTION_DOT": 3.96e-05, "MEAN_MOTION_DDOT": 0}, "tle": {"line1": "1 40718U 15032D   25347.66104285  .00003960  00000+0  49545-3 0  9991", "line2": "2 40718  97.6403 168.6644 0014507 178.2814 181.8452 14.82752732561848"}}, "geometry": {"type": "Point", "coordinates": [171.62563322383136, -16.335802612990822]}}, {"type": "Feature", "properties": {"norad_id": 40878, "name": "YAOGAN-27", "group": "resource", "lat": 51.7862778157431, "lon": 171.0312731759241, "alt_km": 1200.1542850024116, "timestamp": "2025-12-14T09:36:22.691775+00:00", "meta": {"OBJECT_NAME": "YAOGAN-27", "OBJECT_ID": "2015-040A", "EPOCH": "2025-12-13T16:32:31.338240", "MEAN_MOTION": 13.16059608, "ECCENTRICITY": 0.0007635, "INCLINATION": 100.1016, "RA_OF_ASC_NODE": 337.2664, "ARG_OF_PERICENTER": 284.6861, "MEAN_ANOMALY": 75.3406, "EPHEMERIS_TYPE": 0, "CLASSIFICATION_TYPE": "U", "NORAD_CAT_ID": 40878, "ELEMENT_SET_NO": 999, "REV_AT_EPOCH": 49326, "BSTAR": -0.00080197742, "MEAN_MOTION_DOT": -3.47e-06, "MEAN_MOTION_DDOT": 0}, "tle": {"line1": "1 40878U 15040A   25347.68925160 -.00000347  00000+0 -80198-3 0  9999", "line2": "2 40878 100.1016 337.2664 0007635 284.6861  75.3406 13.16059608493263"}}, "geometry": {"type": "Point", "coordinates": [171.0312731759241, 51.7862778157431]}}, {"type": "Feature", "properties": {"norad_id": 40894, "name": "GAOFEN-9 01", "group": "resource", "lat": -79.10091471760623, "lon": 162.98113924978662, "alt_km": 640.8562154691299, "timestamp": "2025-12-14T09:36:22.691785+00:00", "meta": {"OBJECT_NAME": "GAOFEN-9 01", "OBJECT_ID": "2015-047A", "EPOCH": "2025-12-13T16:13:36.940800", "MEAN_MOTION": 14.82425972, "ECCENTRICITY": 0.00283091, "INCLINATION": 97.6546, "RA_OF_ASC_NODE": 26.5912, "ARG_OF_PERICENTER": 31.3692, "MEAN_ANOMALY": 328.9204, "EPHEMERIS_TYPE": 0, "CLASSIFICATION_TYPE": "U", "NORAD_CAT_ID": 40894, "ELEMENT_SET_NO": 999, "REV_AT_EPOCH": 55270, "BSTAR": 0.00022212091, "MEAN_MOTION_DOT": 1.741e-05, "MEAN_MOTION_DDOT": 0}, "tle": {"line1": "1 40894U 15047A   25347.67612200  .00001741  00000+0  22212-3 0  9991", "line2": "2 40894  97.6546  26.5912 0028309  31.3692 328.9204 14.82425972552706"}}, "geometry": {"type": "Point", "coordinates": [162.98113924978662, -79.10091471760623]}}, {"type": "Feature", "properties": {"norad_id": 41026, "name": "YAOGAN-28", "group": "resource", "lat": -55.227609646456656, "lon": 136.7553519987445, "alt_km": 508.2028062846384, "timestamp": "2025-12-14T09:36:22.691795+00:00", "meta": {"OBJECT_NAME": "YAOGAN-28", "OBJECT_ID": "2015-064A", "EPOCH": "2025-12-13T16:31:19.311744", "MEAN_MOTION": 15.24376338, "ECCENTRICITY": 0.00123994, "INCLINATION": 97.2801, "RA_OF_ASC_NODE": 125.4536, "ARG_OF_PERICENTER": 122.9933, "MEAN_ANOMALY": 237.2499, "EPHEMERIS_TYPE": 0, "CLASSIFICATION_TYPE": "U", "NORAD_CAT_ID": 41026, "ELEMENT_SET_NO": 999, "REV_AT_EPOCH": 56239, "BSTAR": 0.00045650045, "MEAN_MOTION_DOT": 0.00011142, "MEAN_MOTION_DDOT": 0}, "tle": {"line1": "1 41026U 15064A   25347.68841796  .00011142  00000+0  45650-3 0  9990", "line2": "2 41026  97.2801 125.4536 0012399 122.9933 237.2499 15.24376338562394"}}, "geometry": {"type": "Point", "coordinates": [136.7553519987445, -55.227609646456656]}}, {"type": "Feature", "properties": {"norad_id": 41038, "name": "YAOGAN-29", "group": "resource", "lat": 26.530331748030402, "lon": -164.38513132105584, "alt_km": 619.3215651230157, "timestamp": "2025-12-14T09:36:22.691805+00:00", "meta": {"OBJECT_NAME": "YAOGAN-29", "OBJECT_ID": "2015-069A", "EPOCH": "2025-12-13T16:43:25.273056", "MEAN_MOTION": 14.82885115, "ECCENTRICITY": 9.95e-06, "INCLINATION": 98.0223, "RA_OF_ASC_NODE": 10.8716, "ARG_OF_PERICENTER": 281.8676, "MEAN_ANOMALY": 78.2526, "EPHEMERIS_TYPE": 0, "CLASSIFICATION_TYPE": "U", "NORAD_CAT_ID": 41038, "ELEMENT_SET_NO": 999, "REV_AT_EPOCH": 54313, "BSTAR": 0.00014713133, "MEAN_MOTION_DOT": 1.138e-05, "MEAN_MOTION_DDOT": 0}, "tle": {"line1": "1 41038U 15069A   25347.69682029  .00001138  00000+0  14713-3 0  9991", "line2": "2 41038  98.0223  10.8716 0000099 281.8676  78.2526 14.82885115543130"}}, "geometry": {"type": "Point", "coordinates": [-164.38513132105584, 26.530331748030402]}}, {"type": "Feature", "properties": {"norad_id": 41167, "name": "KENT RIDGE 1", "group": "resource", "lat": -13.395723224304861, "lon": 135.8646532056175, "alt_km": 504.2624047758609, "timestamp": "2025-12-14T09:36:22.691815+00:00", "meta": {"OBJECT_NAME": "KENT RIDGE 1", "OBJECT_ID": "2015-077B", "EPOCH": "2025-12-12T23:16:30.783072", "MEAN_MOTION": 15.21639218, "ECCENTRICITY": 0.00085187, "INCLINATION": 14.9786, "RA_OF_ASC_NODE": 209.434, "ARG_OF_PERICENTER": 133.9708, "MEAN_ANOMALY": 226.1317, "EPHEMERIS_TYPE": 0, "CLASSIFICATION_TYPE": "U", "NORAD_CAT_ID": 41167, "ELEMENT_SET_NO": 999, "REV_AT_EPOCH": 55267, "BSTAR": 0.00025287461, "MEAN_MOTION_DOT": 6.651e-05, "MEAN_MOTION_DDOT": 0}, "tle": {"line1": "1 41167U 15077B   25346.96980073  .00006651  00000+0  25287-3 0  9995", "line2": "2 41167  14.9786 209.4340 0008518 133.9708 226.1317 15.21639218552676"}}, "geometry": {"type": "Point", "coordinates": [135.8646532056175, -13.395723224304861]}}, {"type": "Feature", "properties": {"norad_id": 41194, "name": "GAOFEN-4", "group": "resource", "lat": -0.1651076301397, "lon": -26.899074345623482, "alt_km": 35799.30736215161, "timestamp": "2025-12-14T09:36:22.691827+00:00", "meta": {"OBJECT_NAME": "GAOFEN-4", "OBJECT_ID": "2015-083A", "EPOCH": "2025-12-13T16:48:21.582720", "MEAN_MOTION": 1.00269213, "ECCENTRICITY": 0.0003384, "INCLINATION": 0.173, "RA_OF_ASC_NODE": 81.2734, "ARG_OF_PERICENTER": 101.0783, "MEAN_ANOMALY": 258.0516, "EPHEMERIS_TYPE": 0, "CLASSIFICATION_TYPE": "U", "NORAD_CAT_ID": 41194, "ELEMENT_SET_NO": 999, "REV_AT_EPOCH": 3666, "BSTAR": 0, "MEAN_MOTION_DOT": -3.19e-06, "MEAN_MOTION_DDOT": 0}, "tle": {"line1": "1 41194U 15083A   25347.70024980 -.00000319  00000+0  00000+0 0  9999", "line2": "2 41194   0.1730  81.2734 0003384 101.0783 258.0516  1.00269213 36667"}}, "geometry": {"type": "Point", "coordinates": [-26.899074345623482, -0.1651076301397]}}, {"type": "Feature", "properties": {"norad_id": 41240, "name": "JASON-3", "group": "resource", "lat": 65.9483970808108, "lon": -120.59292239538354, "alt_km": 1309.1458337639096, "timestamp": "2025-12-14T09:36:22.691838+00:00", "meta": {"OBJECT_NAME": "JASON-3", "OBJECT_ID": "2016-002A", "EPOCH": "2025-12-13T16:22:26.647968", "MEAN_MOTION": 12.87626567, "ECCENTRICITY": 0.00071426, "INCLINATION": 66.0391, "RA_OF_ASC_NODE": 155.8426, "ARG_OF_PERICENTER": 270.8565, "MEAN_ANOMALY": 89.1635, "EPHEMERIS_TYPE": 0, "CLASSIFICATION_TYPE": "U", "NORAD_CAT_ID": 41240, "ELEMENT_SET_NO": 999, "REV_AT_EPOCH": 46336, "BSTAR": 0.00015740841, "MEAN_MOTION_DOT": -2.2e-07, "MEAN_MOTION_DDOT": 0}, "tle": {"line1": "1 41240U 16002A   25347.68225287 -.00000022  00000+0  15741-3 0  9996", "line2": "2 41240  66.0391 155.8426 0007142 270.8565  89.1635 12.87626567463360"}}, "geometry": {"type": "Point", "coordinates": [-120.59292239538354, 65.9483970808108]}}]}